{
    "links": {
        "self": "http://www.neowsapp.com/rest/v1/neo/3697566?api_key=iIulBulltgU6a56xZRHN4H3l9WmuAYTsLGpBGhQ2"
    },
    "id": "3697566",
    "neo_reference_id": "3697566",
    "name": "(2014 WD120)",
    "designation": "2014 WD120",
    "nasa_jpl_url": "http://ssd.jpl.nasa.gov/sbdb.cgi?sstr=3697566",
    "absolute_magnitude_h": 24.2,
    "estimated_diameter": {
        "kilometers": {
            "estimated_diameter_min": 0.0384197891,
            "estimated_diameter_max": 0.0859092601
        },
        "meters": {
            "estimated_diameter_min": 38.4197891064,
            "estimated_diameter_max": 85.9092601232
        },
        "miles": {
            "estimated_diameter_min": 0.0238729428,
            "estimated_diameter_max": 0.0533815229
        },
        "feet": {
            "estimated_diameter_min": 126.0491808919,
            "estimated_diameter_max": 281.8545369825
        }
    },
    "is_potentially_hazardous_asteroid": false,
    "close_approach_data": [
        {
            "close_approach_date": "2014-11-22",
            "close_approach_date_full": "2014-Nov-22 03:49",
            "epoch_date_close_approach": 1416628140000,
            "relative_velocity": {
                "kilometers_per_second": "18.3596238641",
                "kilometers_per_hour": "66094.6459108604",
                "miles_per_hour": "41068.6426216677"
            },
            "miss_distance": {
                "astronomical": "0.0799427712",
                "lunar": "31.0977379968",
                "kilometers": "11959268.293417344",
                "miles": "7431144.7307695872"
            },
            "orbiting_body": "Earth"
        }
    ],
    "orbital_data": {
        "orbit_id": "6",
        "orbit_determination_date": "2017-04-06 08:37:21",
        "first_observation_date": "2014-11-21",
        "last_observation_date": "2014-11-28",
        "data_arc_in_days": 7,
        "observations_used": 18,
        "orbit_uncertainty": "8",
        "minimum_orbit_intersection": ".0797304",
        "jupiter_tisserand_invariant": "3.085",
        "epoch_osculation": "2456983.5",
        "eccentricity": ".5675170535282704",
        "semi_major_axis": "2.468177716368154",
        "inclination": "30.52738730266295",
        "ascending_node_longitude": "60.05007642316668",
        "orbital_period": "1416.325477165552",
        "perihelion_distance": "1.067444771190764",
        "perihelion_argument": "359.5506044078554",
        "aphelion_distance": "3.868910661545543",
        "perihelion_time": "2456983.389120519017",
        "mean_anomaly": ".02818322045139219",
        "mean_motion": ".2541788634067761",
        "equinox": "J2000",
        "orbit_class": {
            "orbit_class_type": "AMO",
            "orbit_class_description": "Near-Earth asteroid orbits similar to that of 1221 Amor",
            "orbit_class_range": "1.017 AU < q (perihelion) < 1.3 AU"
        }
    },
    "is_sentry_object": false
}